OBJECT_NAME,OBJECT_ID,EPOCH,MEAN_MOTION,ECCENTRICITY,INCLINATION,RA_OF_ASC_NODE,ARG_OF_PERICENTER,MEAN_ANOMALY,EPHEMERIS_TYPE,CLASSIFICATION_TYPE,NORAD_CAT_ID,ELEMENT_SET_NO,REV_AT_EPOCH,BSTAR,MEAN_MOTION_DOT,MEAN_MOTION_DDOT
DUBAISAT-1,2009-041B,2026-06-05T21:31:17.553216,14.75106477,.00117257,98.0039,290.2794,105.7067,254.5437,0,U,35682,999,90343,.15747471E-3,.1012E-4,0
OCEANSAT-2,2009-051A,2026-06-06T06:17:36.176928,13.99663332,.00145664,98.2323,145.2036,269.6348,90.3149,0,U,35931,999,87780,.13944276E-3,.166E-5,0
WORLDVIEW-2 (WV-2),2009-055A,2026-06-06T04:03:38.004768,14.37896249,.00031982,98.4737,230.7704,248.9873,111.0972,0,U,35946,999,87406,.62077658E-4,.144E-5,0
SMOS,2009-059A,2026-06-05T12:20:30.501888,14.39766162,.00013377,98.4426,344.0202,90.3074,269.8267,0,U,36036,999,87177,.97237839E-4,.261E-5,0
YAOGAN-7,2009-069A,2026-06-05T10:39:58.951584,14.77997470,.00259951,98.0085,42.3833,77.8419,282.5701,0,U,36110,999,88789,.8175363E-4,.54E-5,0
TANDEM-X,2010-030A,2026-06-01T10:46:51.497760,15.19149361,.00017833,97.4445,160.3804,80.8335,279.3101,0,U,36605,999,88425,.38591092E-4,.743E-5,0
CARTOSAT-2B,2010-035A,2026-06-06T07:25:36.494688,14.78648400,.00103295,97.9952,207.9279,221.4129,138.6300,0,U,36795,999,85824,.14144328E-3,.984E-5,0
YAOGAN-10,2010-038A,2026-06-06T07:35:00.547584,14.85316544,.00016771,97.8977,180.8072,87.9643,41.9167,0,U,36834,999,85559,.27888533E-3,.2343E-4,0
COSMO-SKYMED 4,2010-060A,2026-06-06T07:18:28.604736,14.82159663,.00014429,97.8886,341.0620,82.7634,277.3743,0,U,37216,999,84295,.26361862E-4,.158E-5,0
RESOURCESAT-2,2011-015A,2026-06-06T02:37:24.669984,14.21604124,.0010162,98.7645,224.6272,291.2012,68.8079,0,U,37387,999,78460,.65724921E-4,.1E-5,0
HAIYANG-2A,2011-043A,2026-06-06T06:21:32.511168,13.74549670,.0006196,99.3394,160.1814,113.4128,246.7673,0,U,37781,999,74515,-.20890922E-3,-.241E-5,0
RASAT,2011-044D,2026-06-06T06:39:21.082176,14.68156318,.00194247,98.0571,248.8406,224.7675,219.9474,0,U,37791,999,79158,.11417614E-3,.609E-5,0
SRMSAT,2011-058D,2026-06-05T15:30:37.949184,14.11573181,.0011943,19.9704,129.3229,77.5338,79.4380,0,U,37841,999,75618,.60191484E-4,.376E-5,0
PLEIADES 1A,2011-076F,2026-06-06T07:00:36.895680,14.58564493,.00014818,98.1974,232.5405,98.2105,351.9845,0,U,38012,999,77040,.9676043E-4,.404E-5,0
ZIYUAN 1-02C (ZY 1-02C),2011-079A,2026-06-06T07:07:29.815968,14.38205992,.00061988,98.4068,224.8325,352.5902,94.2048,0,U,38038,999,75764,.15183865E-3,.418E-5,0
ARIRANG-3 (KOMPSAT-3),2012-025B,2026-06-06T05:17:43.301184,14.62196666,.00061598,98.1171,114.8703,137.6905,222.4773,0,U,38338,999,74974,.11186955E-3,.517E-5,0
EXACTVIEW-1 (ADS-1B),2012-039C,2026-06-06T01:50:09.355488,14.24981323,.00105581,98.9765,274.2165,198.1855,161.8948,0,U,38709,999,72112,.81080903E-4,.143E-5,0
SPOT 6,2012-047A,2026-06-06T06:57:53.820864,14.58556621,.00014351,98.2117,224.7261,93.8820,266.2543,0,U,38755,999,73146,.8393544E-4,.344E-5,0
PLEIADES 1B,2012-068A,2026-06-06T07:25:06.495744,14.58553948,.00015631,98.1943,232.5103,95.6268,264.5109,0,U,39019,999,71926,.81952129E-4,.335E-5,0
GOKTURK 2,2012-073A,2026-06-06T07:09:49.308768,14.75530430,.00019723,97.6821,355.2755,62.9548,297.1864,0,U,39030,999,72290,.39292946E-4,.22E-5,0
LANDSAT 8,2013-008A,2026-06-06T02:32:56.144832,14.57111452,.0001454,98.2302,227.3726,96.9047,263.2317,0,U,39084,999,69628,.94012426E-4,.378E-5,0
SARAL,2013-009A,2026-06-06T03:32:08.086848,14.32853323,.00013318,98.5558,343.8546,358.8119,1.3062,0,U,39086,999,69402,.53971653E-4,.104E-5,0
GAOFEN-1,2013-018A,2026-06-05T11:23:40.845120,14.76521097,.00160696,97.9095,228.7800,307.6988,52.2765,0,U,39150,999,70651,-.45793527E-4,-.371E-5,0
VNREDSAT 1,2013-021B,2026-06-06T07:06:54.014400,14.64845259,.0001656,97.9081,211.1302,90.0338,270.1056,0,U,39160,999,69869,.11193126E-3,.552E-5,0
ARIRANG-5 (KOMPSAT-5),2013-042A,2026-06-06T07:48:11.326176,15.04549259,.00039901,97.6209,344.1775,150.1458,209.9996,0,U,39227,999,70222,.14402744E-3,.1958E-4,0
SKYSAT-A,2013-066C,2026-06-05T22:44:43.001088,15.12913886,.00211929,97.3819,206.7031,357.7631,2.3502,0,U,39418,999,68678,.23325228E-3,.4065E-4,0
DUBAISAT-2,2013-066D,2026-06-06T06:29:13.005888,15.10096994,.0013001,97.4564,147.7017,73.1051,287.1603,0,U,39419,999,68474,.27751541E-3,.4467E-4,0
GPM-CORE,2014-009C,2026-06-06T04:54:22.853088,15.45415350,.00120502,64.9730,344.9263,269.2968,90.6792,0,U,39574,999,69611,.18930357E-3,.8878E-4,0
SENTINEL-1A,2014-016A,2026-06-06T07:51:36.128736,14.59199693,.00014466,98.1779,165.0187,80.8449,279.2914,0,U,39634,999,64843,.37161434E-4,.129E-5,0
KAZEOSAT 1,2014-024A,2026-06-06T06:24:34.149888,14.42076072,.00015045,98.3203,229.9854,76.0186,284.1171,0,U,39731,999,63698,.9734227E-4,.277E-5,0
