DUBAISAT-1              
1 35682U 09041B   26156.89673094  .00001012  00000+0  15747-3 0  9994
2 35682  98.0039 290.2794 0011725 105.7067 254.5437 14.75106477903431
OCEANSAT-2              
1 35931U 09051A   26157.26222427  .00000166  00000+0  13944-3 0  9990
2 35931  98.2323 145.2036 0014566 269.6348  90.3149 13.99663332877802
WORLDVIEW-2 (WV-2)      
1 35946U 09055A   26157.16918987  .00000144  00000+0  62078-4 0  9991
2 35946  98.4737 230.7704 0003198 248.9873 111.0972 14.37896249874061
SMOS                    
1 36036U 09059A   26156.51424192  .00000261  00000+0  97238-4 0  9990
2 36036  98.4426 344.0202 0001337  90.3074 269.8267 14.39766162871770
YAOGAN-7                
1 36110U 09069A   26156.44443231  .00000540  00000+0  81754-4 0  9997
2 36110  98.0085  42.3833 0025995  77.8419 282.5701 14.77997470887892
TANDEM-X                
1 36605U 10030A   26152.44920715  .00000743  00000+0  38591-4 0  9995
2 36605  97.4445 160.3804 0001783  80.8335 279.3101 15.19149361884253
CARTOSAT-2B             
1 36795U 10035A   26157.30945017  .00000984  00000+0  14144-3 0  9996
2 36795  97.9952 207.9279 0010329 221.4129 138.6300 14.78648400858245
YAOGAN-10               
1 36834U 10038A   26157.31597856  .00002343  00000+0  27889-3 0  9999
2 36834  97.8977 180.8072 0001677  87.9643  41.9167 14.85316544855598
COSMO-SKYMED 4          
1 37216U 10060A   26157.30449774  .00000158  00000+0  26362-4 0  9991
2 37216  97.8886 341.0620 0001442  82.7634 277.3743 14.82159663842950
RESOURCESAT-2           
1 37387U 11015A   26157.10931331  .00000100  00000+0  65725-4 0  9997
2 37387  98.7645 224.6272 0010162 291.2012  68.8079 14.21604124784609
HAIYANG-2A              
1 37781U 11043A   26157.26495962 -.00000241  00000+0 -20891-3 0  9990
2 37781  99.3394 160.1814 0006196 113.4128 246.7673 13.74549670745151
RASAT                   
1 37791U 11044D   26157.27732734  .00000609  00000+0  11418-3 0  9995
2 37791  98.0571 248.8406 0019424 224.7675 219.9474 14.68156318791583
SRMSAT                  
1 37841U 11058D   26156.64627256  .00000376  00000+0  60191-4 0  9992
2 37841  19.9704 129.3229 0011943  77.5338  79.4380 14.11573181756184
PLEIADES 1A             
1 38012U 11076F   26157.29209370  .00000404  00000+0  96760-4 0  9991
2 38012  98.1974 232.5405 0001481  98.2105 351.9845 14.58564493770406
ZIYUAN 1-02C (ZY 1-02C) 
1 38038U 11079A   26157.29687287  .00000418  00000+0  15184-3 0  9994
2 38038  98.4068 224.8325 0006198 352.5902  94.2048 14.38205992757644
ARIRANG-3 (KOMPSAT-3)   
1 38338U 12025B   26157.22064006  .00000517  00000+0  11187-3 0  9999
2 38338  98.1171 114.8703 0006159 137.6905 222.4773 14.62196666749745
EXACTVIEW-1 (ADS-1B)    
1 38709U 12039C   26157.07649717  .00000143  00000+0  81081-4 0  9993
2 38709  98.9765 274.2165 0010558 198.1855 161.8948 14.24981323721123
SPOT 6                  
1 38755U 12047A   26157.29020626  .00000344  00000+0  83935-4 0  9992
2 38755  98.2117 224.7261 0001435  93.8820 266.2543 14.58556621731467
PLEIADES 1B             
1 39019U 12068A   26157.30910296  .00000335  00000+0  81952-4 0  9999
2 39019  98.1943 232.5103 0001563  95.6268 264.5109 14.58553948719269
GOKTURK 2               
1 39030U 12073A   26157.29848737  .00000220  00000+0  39293-4 0  9990
2 39030  97.6821 355.2755 0001972  62.9548 297.1864 14.75530430722904
LANDSAT 8               
1 39084U 13008A   26157.10620538  .00000378  00000+0  94012-4 0  9999
2 39084  98.2302 227.3726 0001454  96.9047 263.2317 14.57111452696284
SARAL                   
1 39086U 13009A   26157.14731582  .00000104  00000+0  53972-4 0  9995
2 39086  98.5558 343.8546 0001331 358.8119   1.3062 14.32853323694021
GAOFEN-1                
1 39150U 13018A   26156.47477830 -.00000371  00000+0 -45794-4 0  9996
2 39150  97.9095 228.7800 0016069 307.6988  52.2765 14.76521097706517
VNREDSAT 1              
1 39160U 13021B   26157.29645850  .00000552  00000+0  11193-3 0  9995
2 39160  97.9081 211.1302 0001656  90.0338 270.1056 14.64845259698693
ARIRANG-5 (KOMPSAT-5)   
1 39227U 13042A   26157.32513109  .00001958  00000+0  14403-3 0  9995
2 39227  97.6209 344.1775 0003990 150.1458 209.9996 15.04549259702225
SKYSAT-A                
1 39418U 13066C   26156.94771992  .00004065  00000+0  23325-3 0  9991
2 39418  97.3819 206.7031 0021192 357.7631   2.3502 15.12913886686781
DUBAISAT-2              
1 39419U 13066D   26157.27028942  .00004467  00000+0  27752-3 0  9993
2 39419  97.4564 147.7017 0013001  73.1051 287.1603 15.10096994684742
GPM-CORE                
1 39574U 14009C   26157.20443117  .00008878  00000+0  18930-3 0  9999
2 39574  64.9730 344.9263 0012050 269.2968  90.6792 15.45415350696119
SENTINEL-1A             
1 39634U 14016A   26157.32750149  .00000129  00000+0  37161-4 0  9992
2 39634  98.1779 165.0187 0001446  80.8449 279.2914 14.59199693648439
KAZEOSAT 1              
1 39731U 14024A   26157.26706192  .00000277  00000+0  97342-4 0  9992
2 39731  98.3203 229.9854 0001504  76.0186 284.1171 14.42076072636986
